ONEWEB-0228             
1 48780U 21045P   23276.54528386  .00000010  00000+0 -61925-5 0  9999
2 48780  87.8932  95.8296 0001848  85.2924 274.8417 13.15546309115609
